CRE (WAAS/PRN 138)      
1 28868U 05036A   23007.40257741 -.00000062  00000+0  00000+0 0  9995
2 28868   1.0780  91.8017 0000874 204.5609 207.9662  1.00269160 63557
IOR-W (EGNOS/PRN 126)   
1 28899U 05044A   23007.17132743  .00000021  00000+0  00000+0 0  9990
2 28899   3.6632  39.1306 0003203 250.3663 302.5372  1.00271279 62912
QZS-1 (QZSS/PRN 183)    
1 37158U 10045A   23006.20090280 -.00000190  00000+0  00000+0 0  9995
2 37158  42.5544 130.5964 0758471 270.4889 272.9090  1.00255987 45126
GSAT-8 (GAGAN/PRN 127)  
1 37605U 11022A   23007.16577313  .00000097  00000+0  00000+0 0  9996
2 37605   0.0206  92.9103 0008682 177.5818 310.7287  1.00271386 40613
LUCH 5A (SDCM/PRN 140)  
1 37951U 11074B   23007.27861557 -.00000040  00000+0  00000+0 0  9994
2 37951   5.5319  93.8871 0002379 174.1567 105.7783  1.00274001 40581
SES-5 (EGNOS/PRN 136)   
1 38652U 12036A   23007.10868333  .00000046  00000+0  00000+0 0  9998
2 38652   0.0562 295.7105 0002193 342.7483 232.0445  1.00272454 31889
GSAT-10 (GAGAN/PRN 128) 
1 38779U 12051B   23006.90901713 -.00000152  00000+0  00000+0 0  9991
2 38779   0.0373 269.9165 0004873 359.3289 247.2145  1.00272452 37680
LUCH 5B (SDCM/PRN 125)  
1 38977U 12061A   23007.46292188 -.00000129  00000+0  00000+0 0  9997
2 38977   7.7339  61.0676 0002256 148.2538  47.7381  1.00270736 37575
ASTRA 5B (EGNOS/PRN 123)
1 39617U 14011B   23007.13104983  .00000167  00000+0  00000+0 0  9996
2 39617   0.0391 340.2664 0004041 308.7900 256.0489  1.00267940 32066
LUCH 5V (SDCM/PRN 141)  
1 39727U 14023A   23007.12655216 -.00000259  00000+0  00000+0 0  9993
2 39727   1.9898  77.2159 0003125 228.4170 301.1005  1.00272795 31750
GSAT-15 (GAGAN/PRN 139) 
1 41028U 15065A   23007.46230097 -.00000245  00000+0  00000+0 0  9995
2 41028   0.1053 271.3195 0002238 328.6171 126.7313  1.00271178 26263
E 117 W B (WAAS/PRN 131)
1 41589U 16038B   23007.36299470  .00000001  00000+0  00000+0 0  9996
2 41589   0.0080 169.6781 0000345 268.5031  42.1569  1.00271106 24104
SES-15 (WAAS/PRN 133)   
1 42709U 17026A   23007.44159420  .00000073  00000+0  00000+0 0  9997
2 42709   0.0172   4.3401 0000571 278.9300 213.2788  1.00267756 21589
QZS-2 (QZSS/PRN 184)    
1 42738U 17028A   23006.54840935 -.00000138  00000+0  00000+0 0  9992
2 42738  41.4345 261.2912 0754912 269.6652 273.4290  1.00280427 20524
QZS-3 (QZSS/PRN 189)    
1 42917U 17048A   23007.22757750 -.00000336  00000+0  00000+0 0  9991
2 42917   0.0591 186.5986 0002385 115.9116  12.9730  1.00273806 19655
QZS-4 (QZSS/PRN 185)    
1 42965U 17062A   23002.81368800 -.00000364  00000+0  00000+0 0  9995
2 42965  40.7180 359.5598 0750956 271.8631 258.8664  1.00250617 19159
GALAXY 30 (WAAS/PRN 135)
1 46114U 20056C   23007.44847581  .00000049  00000+0  00000+0 0  9993
2 46114   0.0246  43.8385 0002282 250.7239 208.6347  1.00270392  8803
